STARLINK-2022           
1 47643U 21012Z   24259.15783302  .00009759  00000+0  67362-3 0  9997
2 47643  53.0556 318.1631 0001522  85.4575 274.6588 15.06373743198273
